NORAD_CAT_ID,OBJECT_NAME,OBJECT_TYPE,EPOCH,MEAN_MOTION,ECCENTRICITY,INCLINATION,RA_OF_ASC_NODE,ARG_OF_PERICENTER,MEAN_ANOMALY,BSTAR,MEAN_MOTION_DOT,MEAN_MOTION_DDOT,TLE_LINE0,TLE_LINE1,TLE_LINE2,SEMIMAJOR_AXIS,PERIOD,APOGEE,PERIGEE,DECAYED
49165.0,STARLINK-3052,PAYLOAD,2023-06-03 18:57:49,14.98328849,0.0003105,69.9993,320.7627,268.9211,91.1592,-2.6904e-05,-4.14e-06,0.0,0 STARLINK-3052,1 49165U 21082AM  23154.79016049 -.00000414  00000-0 -26904-4 0  9995,2 49165  69.9993 320.7627 0003105 268.9211  91.1592 14.98328849 95914,6950.196,96.107,574.219,569.903,0.0
49165.0,STARLINK-3052,PAYLOAD,2023-06-03 20:33:57,14.9832865,0.0003107,69.9993,320.5944,268.9222,91.1581,-2.8686e-05,-4.35e-06,0.0,0 STARLINK-3052,1 49165U 21082AM  23154.85692073 -.00000435  00000-0 -28686-4 0  9991,2 49165  69.9993 320.5944 0003107 268.9222  91.1581 14.98328650 95916,6950.197,96.107,574.221,569.903,0.0
49165.0,STARLINK-3052,PAYLOAD,2023-06-04 14:11:26,14.98332111,0.0003257,69.9991,318.7421,269.4129,90.6657,6.8825e-05,7.28e-06,0.0,0 STARLINK-3052,1 49165U 21082AM  23155.59127583  .00000728  00000-0  68825-4 0  9994,2 49165  69.9991 318.7421 0003257 269.4129  90.6657 14.98332111 96029,6950.186,96.107,574.315,569.788,0.0
49165.0,STARLINK-3052,PAYLOAD,2023-06-04 18:59:50,14.98334014,0.0003249,69.9992,318.2371,269.3976,90.6811,8.6247e-05,9.36e-06,0.0,0 STARLINK-3052,1 49165U 21082AM  23155.79155388  .00000936  00000-0  86247-4 0  9999,2 49165  69.9992 318.2371 0003249 269.3976  90.6811 14.98334014 96069,6950.18,96.107,574.304,569.787,0.0
49165.0,STARLINK-3052,PAYLOAD,2023-06-04 20:35:58,14.9833492,0.0003248,69.9992,318.0688,269.4518,90.6269,9.4823e-05,1.039e-05,0.0,0 STARLINK-3052,1 49165U 21082AM  23155.85831292  .00001039  00000-0  94823-4 0  9995,2 49165  69.9992 318.0688 0003248 269.4518  90.6269 14.98334920 96063,6950.178,96.107,574.3,569.785,0.0
49165.0,STARLINK-3052,PAYLOAD,2023-06-05 11:01:11,14.98321632,0.0003297,69.9992,316.5536,268.4015,91.6767,0.00011054,1.226e-05,0.0,0 STARLINK-3052,1 49165U 21082AM  23156.45916052  .00001226  00000-0  11054-3 0  9992,2 49165  69.9992 316.5536 0003297 268.4015  91.6767 14.98321632 96164,6950.219,96.108,574.375,569.792,0.0
49165.0,STARLINK-3052,PAYLOAD,2023-06-05 12:37:19,14.98326392,0.0003251,69.9993,316.3853,268.9749,91.1037,4.4234e-05,4.35e-06,0.0,0 STARLINK-3052,1 49165U 21082AM  23156.52591961  .00000435  00000-0  44234-4 0  9996,2 49165  69.9993 316.3853 0003251 268.9749  91.1037 14.98326392 96167,6950.204,96.107,574.329,569.81,0.0
49165.0,STARLINK-3052,PAYLOAD,2023-06-05 20:37:59,14.98331034,0.0003258,69.9993,315.5433,268.3867,91.6919,5.2552e-05,5.34e-06,0.0,0 STARLINK-3052,1 49165U 21082AM  23156.85971655  .00000534  00000-0  52552-4 0  9996,2 49165  69.9993 315.5433 0003258 268.3867  91.6919 14.98331034 96213,6950.19,96.107,574.319,569.79,0.0
49165.0,STARLINK-3052,PAYLOAD,2023-06-06 11:03:12,14.98332422,0.0003167,69.9996,314.0282,268.7956,91.284,-1.6869e-05,-2.94e-06,0.0,0 STARLINK-3052,1 49165U 21082AM  23157.46055748 -.00000294  00000-0 -16869-4 0  9996,2 49165  69.9996 314.0282 0003167 268.7956  91.2840 14.98332422 96305,6950.185,96.107,574.252,569.849,0.0
49165.0,STARLINK-3052,PAYLOAD,2023-06-06 19:03:52,14.98334655,0.000311,69.9999,313.1876,265.8899,94.1905,4.0285e-06,-4.5e-07,0.0,0 STARLINK-3052,1 49165U 21082AM  23157.79435478 -.00000045  00000-0  40285-5 0  9997,2 49165  69.9999 313.1876 0003110 265.8899  94.1905 14.98334655 96358,6950.178,96.107,574.205,569.882,0.0
49165.0,STARLINK-3052,PAYLOAD,2023-06-06 20:40:00,14.98334957,0.0003108,69.9999,313.0193,265.8562,94.2242,7.4999e-06,-4e-08,0.0,0 STARLINK-3052,1 49165U 21082AM  23157.86111430 -.00000004  00000-0  74999-5 0  9998,2 49165  69.9999 313.0193 0003108 265.8562  94.2242 14.98334957 96375,6950.178,96.107,574.203,569.882,0.0
49165.0,STARLINK-3052,PAYLOAD,2023-06-07 20:42:01,14.98331422,0.0003161,69.9999,310.4945,265.9636,94.1162,4.556e-05,4.51e-06,0.0,0 STARLINK-3052,1 49165U 21082AM  23158.86251458  .00000451  00000-0  45560-4 0  9990,2 49165  69.9999 310.4945 0003161 265.9636  94.1162 14.98331422 96513,6950.188,96.107,574.25,569.857,0.0
49165.0,STARLINK-3052,PAYLOAD,2023-06-08 12:43:21,14.98332062,0.000323,69.9997,308.8109,266.913,93.1659,6.6414e-06,-1.4e-07,0.0,0 STARLINK-3052,1 49165U 21082AM  23159.53011474 -.00000014  00000-0  66414-5 0  9995,2 49165  69.9997 308.8109 0003230 266.9130  93.1659 14.98332062 96613,6950.187,96.107,574.296,569.807,0.0
49165.0,STARLINK-3052,PAYLOAD,2023-06-08 17:31:46,14.98332974,0.0003238,69.9997,308.3058,267.5551,92.5237,1.6459e-05,1.03e-06,0.0,0 STARLINK-3052,1 49165U 21082AM  23159.73039365  .00000103  00000-0  16459-4 0  9997,2 49165  69.9997 308.3058 0003238 267.5551  92.5237 14.98332974 96643,6950.184,96.107,574.299,569.798,0.0
49165.0,STARLINK-3052,PAYLOAD,2023-06-08 20:44:01,14.98334653,0.0003226,69.9997,307.9691,267.8738,92.2052,3.4815e-05,3.22e-06,0.0,0 STARLINK-3052,1 49165U 21082AM  23159.86391182  .00000322  00000-0  34815-4 0  9998,2 49165  69.9997 307.9691 0003226 267.8738  92.2052 14.98334653 96679,6950.179,96.107,574.286,569.801,0.0
49165.0,STARLINK-3052,PAYLOAD,2023-06-09 09:33:06,14.9833053,0.0003176,70.0,306.622,266.6074,93.4722,1.3852e-05,7.2e-07,0.0,0 STARLINK-3052,1 49165U 21082AM  23160.39799443  .00000072  00000-0  13852-4 0  9990,2 49165  70.0000 306.6220 0003176 266.6074  93.4722 14.98330530 96740,6950.191,96.107,574.264,569.849,0.0
49165.0,STARLINK-3052,PAYLOAD,2023-06-09 15:57:38,14.9833129,0.0003199,70.0,305.9486,267.0383,93.041,1.8566e-05,1.29e-06,0.0,0 STARLINK-3052,1 49165U 21082AM  23160.66503362  .00000129  00000-0  18566-4 0  9993,2 49165  70.0000 305.9486 0003199 267.0383  93.0410 14.98331290 96787,6950.189,96.107,574.277,569.831,0.0
49165.0,STARLINK-3052,PAYLOAD,2023-06-10 03:10:35,14.98331278,0.0003334,69.9992,304.7699,269.9803,90.0974,-3.9303e-05,-5.62e-06,0.0,0 STARLINK-3052,1 49165U 21082AM  23161.13235458 -.00000562  00000-0 -39303-4 0  9999,2 49165  69.9992 304.7699 0003334 269.9803  90.0974 14.98331278 96863,6950.189,96.107,574.371,569.737,0.0
49165.0,STARLINK-3052,PAYLOAD,2023-06-10 09:35:07,14.9832694,0.0003335,69.9991,304.0965,269.3948,90.6829,1.9335e-06,-7e-07,0.0,0 STARLINK-3052,1 49165U 21082AM  23161.39939644 -.00000070  00000-0  19335-5 0  9992,2 49165  69.9991 304.0965 0003335 269.3948  90.6829 14.98326940 96894,6950.202,96.107,574.385,569.749,0.0
49165.0,STARLINK-3052,PAYLOAD,2023-06-10 19:11:56,14.98331204,0.0003337,69.9993,303.0864,268.9661,91.1116,-1.7089e-06,-1.13e-06,0.0,0 STARLINK-3052,1 49165U 21082AM  23161.79995417 -.00000113  00000-0 -17089-5 0  9999,2 49165  69.9993 303.0864 0003337 268.9661  91.1116 14.98331204 96953,6950.189,96.107,574.373,569.735,0.0
49165.0,STARLINK-3052,PAYLOAD,2023-06-11 08:01:00,14.98329446,0.0003351,69.9995,301.74,269.8127,90.2649,4.2229e-05,4.11e-06,0.0,0 STARLINK-3052,1 49165U 21082AM  23162.33403441  .00000411  00000-0  42229-4 0  9993,2 49165  69.9995 301.7400 0003351 269.8127  90.2649 14.98329446 97046,6950.195,96.107,574.389,569.731,0.0
49165.0,STARLINK-3052,PAYLOAD,2023-06-11 20:50:04,14.98336951,0.0003348,69.9994,300.3936,270.4138,89.6637,8.0013e-05,8.62e-06,0.0,0 STARLINK-3052,1 49165U 21082AM  23162.86810787  .00000862  00000-0  80013-4 0  9999,2 49165  69.9994 300.3936 0003348 270.4138  89.6637 14.98336951 97116,6950.171,96.107,574.363,569.709,0.0
49165.0,STARLINK-3052,PAYLOAD,2023-06-12 08:03:01,14.98329759,0.0003271,69.9998,299.2153,271.0977,88.9807,5.8628e-05,6.07e-06,0.0,0 STARLINK-3052,1 49165U 21082AM  23163.33543246  .00000607  00000-0  58628-4 0  9999,2 49165  69.9998 299.2153 0003271 271.0977  88.9807 14.98329759 97197,6950.194,96.107,574.332,569.785,0.0
49165.0,STARLINK-3052,PAYLOAD,2023-06-12 16:03:41,14.9833416,0.000327,69.9998,298.3738,271.1711,88.9073,9.1263e-05,9.96e-06,0.0,0 STARLINK-3052,1 49165U 21082AM  23163.66922838  .00000996  00000-0  91263-4 0  9996,2 49165  69.9998 298.3738 0003270 271.1711  88.9073 14.98334160 97234,6950.18,96.107,574.318,569.772,0.0
49165.0,STARLINK-3052,PAYLOAD,2023-06-13 08:05:02,14.98329393,0.0003274,69.9999,296.6911,270.8007,89.2777,5.8242e-06,-2.4e-07,0.0,0 STARLINK-3052,1 49165U 21082AM  23164.33683271 -.00000024  00000-0  58242-5 0  9990,2 49165  69.9999 296.6911 0003274 270.8007  89.2777 14.98329393 97346,6950.195,96.107,574.335,569.784,0.0
49165.0,STARLINK-3052,PAYLOAD,2023-06-13 09:41:10,14.98328649,0.000321,70.0003,296.5232,270.8496,89.2295,9.757e-09,-9.3e-07,0.0,0 STARLINK-3052,1 49165U 21082AM  23164.40359332 -.00000093  00000-0  97570-8 0  9992,2 49165  70.0003 296.5232 0003210 270.8496  89.2295 14.98328649 97340,6950.197,96.107,574.293,569.831,0.0
49165.0,STARLINK-3052,PAYLOAD,2023-06-14 19:19:59,14.98331153,0.0003058,70.0003,292.9884,269.3811,90.6998,-1.0143e-06,-1.05e-06,0.0,0 STARLINK-3052,1 49165U 21082AM  23165.80555126 -.00000105  00000-0 -10143-5 0  9999,2 49165  70.0003 292.9884 0003058 269.3811  90.6998 14.98331153 97550,6950.189,96.107,574.18,569.929,0.0
49165.0,STARLINK-3052,PAYLOAD,2023-06-15 01:44:31,14.98329687,0.0003305,69.9998,292.3143,271.4879,88.5902,-4.1759e-05,-5.91e-06,0.0,0 STARLINK-3052,1 49165U 21082AM  23166.07259240 -.00000591  00000-0 -41759-4 0  9992,2 49165  69.9998 292.3143 0003305 271.4879  88.5902 14.98329687 97601,6950.194,96.107,574.356,569.762,0.0
49165.0,STARLINK-3052,PAYLOAD,2023-06-15 12:57:28,14.98326762,0.000333,69.9997,291.136,271.4295,88.6483,4.0507e-06,-4.5e-07,0.0,0 STARLINK-3052,1 49165U 21082AM  23166.53991411 -.00000045  00000-0  40507-5 0  9990,2 49165  69.9997 291.1360 0003330 271.4295  88.6483 14.98326762 97660,6950.203,96.107,574.382,569.753,0.0
49165.0,STARLINK-3052,PAYLOAD,2023-06-15 17:45:52,14.98329523,0.0003318,69.9996,290.6305,271.6558,88.4221,3.0839e-05,2.75e-06,0.0,0 STARLINK-3052,1 49165U 21082AM  23166.74019180  .00000275  00000-0  30839-4 0  9997,2 49165  69.9996 290.6305 0003318 271.6558  88.4221 14.98329523 97691,6950.194,96.107,574.365,569.753,0.0
